ORBCOMM FM25 [-]        
1 25479U 98053E   24059.90321451  .00001501  00000+0  56814-3 0  9990
2 25479  45.0098 351.1099 0004469  15.3496 344.7486 14.35293450329538
ORBCOMM FM26 [-]        
1 25480U 98053F   24059.88327446  .00001275  00000+0  49472-3 0  9999
2 25480  45.0092 345.0348 0006013  40.9817 319.1481 14.34785125329479
ORBCOMM FM28 [-]        
1 25482U 98053H   24059.89921824  .00001161  00000+0  44657-3 0  9996
2 25482  45.0063 290.1056 0004193  76.7723 283.3592 14.35728025330301
ORBCOMM FM30 [-]        
1 25980U 99065A   24059.71292453  .00001353  00000+0  52073-3 0  9997
2 25980  45.0310 171.2962 0006739 165.6337 194.4703 14.34925565266245
ORBCOMM FM31 [-]        
1 25981U 99065B   24059.60916972  .00001395  00000+0  53528-3 0  9997
2 25981  45.0225 165.5323 0004455 193.1020 166.9713 14.34939050266751
ORBCOMM FM32 [+]        
1 25982U 99065C   24059.60867310  .00001329  00000+0  52278-3 0  9997
2 25982  45.0149 178.8163 0006797 186.7931 173.2825 14.33905367266428
